start=new Date('2022-10-05T00:00:00.000Z').valueOf();
sats=[{"TIME_SYSTEM":"UTC","DECAY_DATE":null,"MEAN_MOTION_DDOT":"0.0000000000000","REV_AT_EPOCH":"4755","SITE":"AFWTR","OBJECT_TYPE":"PAYLOAD","OBJECT_ID":"2021-125L","TLE_LINE1":"1 50166U 21125L   22277.51143471  .00001773  00000-0  12947-3 0  9999","FILE":"3591197","MEAN_MOTION":"15.08838148","GP_ID":"214159013","EPOCH":"2022-10-04T12:16:27.958944","PERIOD":"95.438","BSTAR":"0.00012947000000","COUNTRY_CODE":"US","NORAD_CAT_ID":"50166","ELEMENT_SET_NO":"999","SEMIMAJOR_AXIS":"6917.886","MEAN_ANOMALY":"316.7863","ECCENTRICITY":"0.00019250","REF_FRAME":"TEME","RCS_SIZE":"LARGE","OBJECT_NAME":"STARLINK-3305","MEAN_MOTION_DOT":"0.00001773","RA_OF_ASC_NODE":"110.3628","TLE_LINE2":"2 50166  53.2161 110.3628 0001925  43.3280 316.7863 15.08838148 47557","INCLINATION":"53.2161","PERIAPSIS":"538.419","CLASSIFICATION_TYPE":"U","EPHEMERIS_TYPE":"0","LAUNCH_DATE":"2021-12-18","ARG_OF_PERICENTER":"43.3280","CENTER_NAME":"EARTH","APOAPSIS":"541.083","MEAN_ELEMENT_THEORY":"SGP4"},{"EPHEMERIS_TYPE":"0","CLASSIFICATION_TYPE":"U","PERIAPSIS":"538.664","INCLINATION":"53.2183","TLE_LINE2":"2 50167  53.2183 121.4100 0001511  60.2671 299.8471 15.08851937 47381","RA_OF_ASC_NODE":"121.4100","OBJECT_NAME":"STARLINK-3271","RCS_SIZE":"LARGE","MEAN_MOTION_DOT":"0.00001316","REF_FRAME":"TEME","ECCENTRICITY":"0.00015110","MEAN_ELEMENT_THEORY":"SGP4","APOAPSIS":"540.754","CENTER_NAME":"EARTH","ARG_OF_PERICENTER":"60.2671","LAUNCH_DATE":"2021-12-18","FILE":"3591197","TLE_LINE1":"1 50167U 21125M   22277.28234971  .00001316  00000-0  10070-3 0  9998","OBJECT_ID":"2021-125M","OBJECT_TYPE":"PAYLOAD","SITE":"AFWTR","REV_AT_EPOCH":"4738","MEAN_MOTION_DDOT":"0.0000000000000","TIME_SYSTEM":"UTC","DECAY_DATE":null,"MEAN_ANOMALY":"299.8471","SEMIMAJOR_AXIS":"6917.844","ELEMENT_SET_NO":"999","COUNTRY_CODE":"US","BSTAR":"0.00010070000000","NORAD_CAT_ID":"50167","PERIOD":"95.437","GP_ID":"214159263","EPOCH":"2022-10-04T06:46:35.014944","MEAN_MOTION":"15.08851937"},{"CLASSIFICATION_TYPE":"U","PERIAPSIS":"538.389","INCLINATION":"53.2156","EPHEMERIS_TYPE":"0","REF_FRAME":"TEME","ECCENTRICITY":"0.00019720","TLE_LINE2":"2 50168  53.2156 108.8944 0001972  47.9686 312.1473 15.08837365 44518","RA_OF_ASC_NODE":"108.8944","RCS_SIZE":"LARGE","OBJECT_NAME":"STARLINK-3296","MEAN_MOTION_DOT":"-0.00000080","MEAN_ELEMENT_THEORY":"SGP4","APOAPSIS":"541.118","CENTER_NAME":"EARTH","ARG_OF_PERICENTER":"47.9686","LAUNCH_DATE":"2021-12-18","FILE":"3591450","TLE_LINE1":"1 50168U 21125N   22277.83895804 -.00000080  00000-0  13071-4 0  9991","OBJECT_ID":"2021-125N","REV_AT_EPOCH":"4451","MEAN_MOTION_DDOT":"0.0000000000000","TIME_SYSTEM":"UTC","DECAY_DATE":null,"OBJECT_TYPE":"PAYLOAD","SITE":"AFWTR","COUNTRY_CODE":"US","BSTAR":"0.00001307100000","NORAD_CAT_ID":"50168","ELEMENT_SET_NO":"999","PERIOD":"95.438","MEAN_ANOMALY":"312.1473","SEMIMAJOR_AXIS":"6917.888","MEAN_MOTION":"15.08837365","GP_ID":"214167287","EPOCH":"2022-10-04T20:08:05.974656"},{"ECCENTRICITY":"0.00020840","REF_FRAME":"TEME","RA_OF_ASC_NODE":"109.0376","OBJECT_NAME":"STARLINK-3301","RCS_SIZE":"LARGE","MEAN_MOTION_DOT":"0.00001096","TLE_LINE2":"2 50169  53.2157 109.0376 0002084  51.6861 308.4319 15.08841954 44521","CLASSIFICATION_TYPE":"U","PERIAPSIS":"538.298","INCLINATION":"53.2157","EPHEMERIS_TYPE":"0","LAUNCH_DATE":"2021-12-18","ARG_OF_PERICENTER":"51.6861","CENTER_NAME":"EARTH","APOAPSIS":"541.181","MEAN_ELEMENT_THEORY":"SGP4","MEAN_MOTION_DDOT":"0.0000000000000","TIME_SYSTEM":"UTC","DECAY_DATE":null,"REV_AT_EPOCH":"4452","SITE":"AFWTR","OBJECT_TYPE":"PAYLOAD","TLE_LINE1":"1 50169U 21125P   22277.80951515  .00001096  00000-0  86936-4 0  9998","OBJECT_ID":"2021-125P","FILE":"3591450","MEAN_MOTION":"15.08841954","GP_ID":"214167063","EPOCH":"2022-10-04T19:25:42.108960","PERIOD":"95.437","COUNTRY_CODE":"US","ELEMENT_SET_NO":"999","BSTAR":"0.00008693600000","NORAD_CAT_ID":"50169","MEAN_ANOMALY":"308.4319","SEMIMAJOR_AXIS":"6917.874"},{"CLASSIFICATION_TYPE":"U","PERIAPSIS":"538.399","INCLINATION":"53.2164","EPHEMERIS_TYPE":"0","ECCENTRICITY":"0.00019960","REF_FRAME":"TEME","RA_OF_ASC_NODE":"108.9303","MEAN_MOTION_DOT":"0.00000630","RCS_SIZE":"LARGE","OBJECT_NAME":"STARLINK-3245","TLE_LINE2":"2 50170  53.2164 108.9303 0001996  42.7834 317.3313 15.08828886 47605","CENTER_NAME":"EARTH","MEAN_ELEMENT_THEORY":"SGP4","APOAPSIS":"541.160","LAUNCH_DATE":"2021-12-18","ARG_OF_PERICENTER":"42.7834","TLE_LINE1":"1 50170U 21125Q   22277.83161432  .00000630  00000-0  57713-4 0  9998","OBJECT_ID":"2021-125Q","FILE":"3591597","MEAN_MOTION_DDOT":"0.0000000000000","TIME_SYSTEM":"UTC","DECAY_DATE":null,"REV_AT_EPOCH":"4760","SITE":"AFWTR","OBJECT_TYPE":"PAYLOAD","PERIOD":"95.438","ELEMENT_SET_NO":"999","COUNTRY_CODE":"US","BSTAR":"0.00005771300000","NORAD_CAT_ID":"50170","MEAN_ANOMALY":"317.3313","SEMIMAJOR_AXIS":"6917.914","MEAN_MOTION":"15.08828886","EPOCH":"2022-10-04T19:57:31.477248","GP_ID":"214193153"},{"ECCENTRICITY":"0.00018150","REF_FRAME":"TEME","RA_OF_ASC_NODE":"111.5456","OBJECT_NAME":"STARLINK-3286","RCS_SIZE":"LARGE","MEAN_MOTION_DOT":"0.00003013","TLE_LINE2":"2 50171  53.2173 111.5456 0001815  51.0247 309.0906 15.08854773 47527","CLASSIFICATION_TYPE":"U","INCLINATION":"53.2173","PERIAPSIS":"538.445","EPHEMERIS_TYPE":"0","LAUNCH_DATE":"2021-12-18","ARG_OF_PERICENTER":"51.0247","CENTER_NAME":"EARTH","APOAPSIS":"540.956","MEAN_ELEMENT_THEORY":"SGP4","MEAN_MOTION_DDOT":"0.0000000000000","DECAY_DATE":null,"TIME_SYSTEM":"UTC","REV_AT_EPOCH":"4752","SITE":"AFWTR","OBJECT_TYPE":"PAYLOAD","TLE_LINE1":"1 50171U 21125R   22277.25014865  .00003013  00000-0  20726-3 0  9993","OBJECT_ID":"2021-125R","FILE":"3591197","MEAN_MOTION":"15.08854773","GP_ID":"214159764","EPOCH":"2022-10-04T06:00:12.843360","PERIOD":"95.437","BSTAR":"0.00020726000000","COUNTRY_CODE":"US","NORAD_CAT_ID":"50171","ELEMENT_SET_NO":"999","MEAN_ANOMALY":"309.0906","SEMIMAJOR_AXIS":"6917.835"},{"SITE":"AFWTR","OBJECT_TYPE":"PAYLOAD","DECAY_DATE":null,"TIME_SYSTEM":"UTC","MEAN_MOTION_DDOT":"0.0000000000000","REV_AT_EPOCH":"4712","OBJECT_ID":"2021-125S","TLE_LINE1":"1 50172U 21125S   22277.82423534  .00000586  00000-0  54915-4 0  9994","FILE":"3591450","GP_ID":"214167061","EPOCH":"2022-10-04T19:46:53.933376","MEAN_MOTION":"15.08840690","SEMIMAJOR_AXIS":"6917.878","MEAN_ANOMALY":"298.8155","PERIOD":"95.438","COUNTRY_CODE":"US","NORAD_CAT_ID":"50172","BSTAR":"0.00005491500000","ELEMENT_SET_NO":"999","MEAN_MOTION_DOT":"0.00000586","RCS_SIZE":"LARGE","OBJECT_NAME":"STARLINK-3287","RA_OF_ASC_NODE":"108.9744","TLE_LINE2":"2 50172  53.2154 108.9744 0001695  61.3008 298.8155 15.08840690 47122","ECCENTRICITY":"0.00016950","REF_FRAME":"TEME","EPHEMERIS_TYPE":"0","INCLINATION":"53.2154","PERIAPSIS":"538.571","CLASSIFICATION_TYPE":"U","LAUNCH_DATE":"2021-12-18","ARG_OF_PERICENTER":"61.3008","CENTER_NAME":"EARTH","APOAPSIS":"540.916","MEAN_ELEMENT_THEORY":"SGP4"},{"REV_AT_EPOCH":"4775","TIME_SYSTEM":"UTC","DECAY_DATE":null,"MEAN_MOTION_DDOT":"0.0000000000000","OBJECT_TYPE":"PAYLOAD","SITE":"AFWTR","FILE":"3591597","OBJECT_ID":"2021-125T","TLE_LINE1":"1 50173U 21125T   22277.78563336 -.00001101  00000-0 -51095-4 0  9997","MEAN_MOTION":"15.08844596","EPOCH":"2022-10-04T18:51:18.722304","GP_ID":"214192402","BSTAR":"-0.00005109500000","COUNTRY_CODE":"US","ELEMENT_SET_NO":"999","NORAD_CAT_ID":"50173","PERIOD":"95.437","MEAN_ANOMALY":"290.1106","SEMIMAJOR_AXIS":"6917.866","REF_FRAME":"TEME","ECCENTRICITY":"0.00014760","TLE_LINE2":"2 50173  53.2187  99.1453 0001476  70.0045 290.1106 15.08844596 47751","RCS_SIZE":"LARGE","MEAN_MOTION_DOT":"-0.00001101","OBJECT_NAME":"STARLINK-3289","RA_OF_ASC_NODE":"99.1453","PERIAPSIS":"538.710","INCLINATION":"53.2187","CLASSIFICATION_TYPE":"U","EPHEMERIS_TYPE":"0","ARG_OF_PERICENTER":"70.0045","LAUNCH_DATE":"2021-12-18","MEAN_ELEMENT_THEORY":"SGP4","APOAPSIS":"540.752","CENTER_NAME":"EARTH"},{"CENTER_NAME":"EARTH","APOAPSIS":"540.983","MEAN_ELEMENT_THEORY":"SGP4","LAUNCH_DATE":"2021-12-18","ARG_OF_PERICENTER":"52.6540","CLASSIFICATION_TYPE":"U","INCLINATION":"53.2166","PERIAPSIS":"538.496","EPHEMERIS_TYPE":"0","ECCENTRICITY":"0.00017970","REF_FRAME":"TEME","RA_OF_ASC_NODE":"109.0272","RCS_SIZE":"LARGE","OBJECT_NAME":"STARLINK-3292","MEAN_MOTION_DOT":"0.00002811","TLE_LINE2":"2 50174  53.2166 109.0272 0001797  52.6540 307.4616 15.08841903 47129","PERIOD":"95.437","COUNTRY_CODE":"US","BSTAR":"0.00019465000000","NORAD_CAT_ID":"50174","ELEMENT_SET_NO":"999","SEMIMAJOR_AXIS":"6917.875","MEAN_ANOMALY":"307.4616","MEAN_MOTION":"15.08841903","EPOCH":"2022-10-04T19:31:00.131808","GP_ID":"214167309","TLE_LINE1":"1 50174U 21125U   22277.81319597  .00002811  00000-0  19465-3 0  9991","OBJECT_ID":"2021-125U","FILE":"3591451","MEAN_MOTION_DDOT":"0.0000000000000","DECAY_DATE":null,"TIME_SYSTEM":"UTC","REV_AT_EPOCH":"4712","SITE":"AFWTR","OBJECT_TYPE":"PAYLOAD"},{"APOAPSIS":"541.005","MEAN_ELEMENT_THEORY":"SGP4","CENTER_NAME":"EARTH","ARG_OF_PERICENTER":"45.5370","LAUNCH_DATE":"2021-12-18","EPHEMERIS_TYPE":"0","PERIAPSIS":"538.486","INCLINATION":"53.2163","CLASSIFICATION_TYPE":"U","TLE_LINE2":"2 50175  53.2163 108.9140 0001821  45.5370 314.5770 15.08839887 47127","RCS_SIZE":"LARGE","OBJECT_NAME":"STARLINK-3291","MEAN_MOTION_DOT":"0.00001501","RA_OF_ASC_NODE":"108.9140","REF_FRAME":"TEME","ECCENTRICITY":"0.00018210","MEAN_ANOMALY":"314.5770","SEMIMAJOR_AXIS":"6917.881","COUNTRY_CODE":"US","ELEMENT_SET_NO":"999","BSTAR":"0.00011241000000","NORAD_CAT_ID":"50175","PERIOD":"95.438","GP_ID":"214167070","EPOCH":"2022-10-04T20:02:48.007968","MEAN_MOTION":"15.08839887","FILE":"3591451","OBJECT_ID":"2021-125V","TLE_LINE1":"1 50175U 21125V   22277.83527787  .00001501  00000-0  11241-3 0  9995","OBJECT_TYPE":"PAYLOAD","SITE":"AFWTR","REV_AT_EPOCH":"4712","DECAY_DATE":null,"TIME_SYSTEM":"UTC","MEAN_MOTION_DDOT":"0.0000000000000"}];
